RAPIDEYE 2              
1 33312U 08040A   20115.11595188  .00006828  00000-0  61158-3 0  9999
2 33312  97.6923 180.9945 0011606 199.2315 160.8777 14.96081624629745
RAPIDEYE 5              
1 33313U 08040B   20115.42117374 -.00000372  00000-0 -29215-4 0  9990
2 33313  97.6952 180.2517 0016497  77.1261 283.1609 14.94372313629731
RAPIDEYE 1              
1 33314U 08040C   20115.74881121 -.00009871  00000-0 -89849-3 0  9995
2 33314  97.7170 181.7370 0025581 192.4412 167.4523 14.94772165629829
RAPIDEYE 3              
1 33315U 08040D   20115.49219881 -.00000344  00000-0 -24748-4 0  9990
2 33315  97.6974 180.3289 0003880 137.1283 223.0171 14.97313729629755
RAPIDEYE 4              
1 33316U 08040E   20115.15490118  .00002071  00000-0  19227-3 0  9990
2 33316  97.7012 179.9932 0008367  96.0736 264.1270 14.95462405629693
SKYSAT-1                
1 39418U 13066C   20115.80708710 -.00000214  00000-0 -12792-4 0  9995
2 39418  97.6236 196.4885 0021922  21.6896 338.5250 14.98943378351246
FLOCK 1C-10             
1 40023U 14033P   20115.76590168  .00000518  00000-0  59499-4 0  9995
2 40023  97.9363  44.2573 0013910 112.4866 247.7825 14.90058664317699
FLOCK 1C-7              
1 40026U 14033S   20115.79685026  .00000493  00000-0  55950-4 0  9999
2 40026  97.9452  46.8135 0012465 106.0016 254.2575 14.90820765317305
FLOCK 1C-1              
1 40027U 14033T   20115.76101701  .00000604  00000-0  68327-4 0  9996
2 40027  97.9398  44.8799 0013871 109.8347 250.4367 14.90111820317187
FLOCK 1C-2              
1 40029U 14033V   20115.84005550  .00000501  00000-0  57712-4 0  9994
2 40029  97.9383  44.7072 0015079 107.0983 253.1887 14.90075372317216
FLOCK 1C-4              
1 40031U 14033X   20115.78890784  .00000232  00000-0  30219-4 0  9995
2 40031  97.9391  44.2220 0015778 106.2561 254.0393 14.89649788317664
FLOCK 1C-11             
1 40033U 14033Z   20115.79857255  .00000216  00000-0  27679-4 0  9992
2 40033  97.9516  48.7257 0013629  95.4696 264.8077 14.91080353317900
FLOCK 1C-9              
1 40035U 14033AB  20115.78930650  .00000497  00000-0  57166-4 0  9999
2 40035  97.9441  45.6433 0013168  99.6687 260.6019 14.90202196317231
FLOCK 1C-6              
1 40036U 14033AC  20115.73688036  .00000554  00000-0  62912-4 0  9992
2 40036  97.9469  46.1928 0013376 100.3510 259.9216 14.90306995317224
FLOCK 1C-5              
1 40038U 14033AE  20115.83218160  .00000611  00000-0  68761-4 0  9994
2 40038  97.9436  45.7496 0015451  99.9818 260.3144 14.90272452317243
FLOCK 1C-8              
1 40040U 14033AG  20115.61576439  .00000693  00000-0  73640-4 0  9991
2 40040  97.9666  52.2764 0014261  81.2899 278.9934 14.92220510318022
FLOCK 1C-3              
1 40041U 14033AH  20115.75853536  .00000601  00000-0  68365-4 0  9990
2 40041  97.9405  44.7832 0014537  99.9212 260.3647 14.89902519317158
SKYSAT-2                
1 40072U 14037D   20115.73243819  .00000099  00000-0  20249-4 0  9993
2 40072  98.4582 291.0538 0005450 315.5846  44.4927 14.81272600313216
SKYSAT-C1               
1 41601U 16040C   20115.19729653  .00010702  00000-0  29104-3 0  9993
2 41601  97.2267 193.8163 0005375  10.3326 349.7650 15.37699764213370
FLOCK 2P-6              
1 41606U 16040H   20115.73552003  .00001292  00000-0  52502-4 0  9994
2 41606  97.3297 180.4209 0010144  14.0989 346.0531 15.26314777213563
FLOCK 2P-11             
1 41608U 16040K   20115.81476822  .00002985  00000-0  11129-3 0  9998
2 41608  97.3248 181.1277 0009392   9.6624 350.4795 15.28172174213570
FLOCK 2P-2              
1 41609U 16040L   20115.80893225  .00002258  00000-0  88441-4 0  9993
2 41609  97.3290 180.4684 0009759  13.8262 346.3242 15.26783547213496
FLOCK 2P-9              
1 41610U 16040M   20115.74288449  .00001422  00000-0  57684-4 0  9991
2 41610  97.3295 180.2215 0010457  13.5362 346.6155 15.26196955213358
FLOCK 2P-4              
1 41611U 16040N   20115.81440317  .00002810  00000-0  10683-3 0  9993
2 41611  97.3305 181.4794 0009882  20.6497 339.5140 15.27575927213574
FLOCK 2P-10             
1 41612U 16040P   20115.78169949  .00001627  00000-0  65422-4 0  9996
2 41612  97.3342 181.0955 0010478  23.5058 336.6658 15.26285616213539
FLOCK 2P-8              
1 41613U 16040Q   20115.83683041  .00001393  00000-0  56607-4 0  9992
2 41613  97.3334 180.9410 0010602  21.7806 338.3881 15.26173330213531
FLOCK 2P-12             
1 41614U 16040R   20115.73162357  .00001483  00000-0  60115-4 0  9993
2 41614  97.3344 181.1188 0010553  23.6866 336.4856 15.26167199213526
FLOCK 2P-7              
1 41615U 16040S   20115.81956005  .00002997  00000-0  11242-3 0  9991
2 41615  97.3275 181.4504 0009732  20.4390 339.7237 15.27960880213583
FLOCK 2P-5              
1 41616U 16040T   20115.82681469  .00002768  00000-0  10775-3 0  9998
2 41616  97.3322 181.2726 0010031  20.5130 339.6509 15.26797355213527
FLOCK 2P-1              
1 41617U 16040U   20115.71934544  .00002508  00000-0  95747-4 0  9997
2 41617  97.3303 181.4987 0009668  21.4303 338.7339 15.27529503213557
FLOCK 2P-3              
1 41618U 16040V   20115.81645822  .00001208  00000-0  49391-4 0  9997
2 41618  97.3354 181.1841 0010273  22.4664 337.7022 15.26215919213533
SKYSAT-C4               
1 41771U 16058B   20115.79782519  .00001239  00000-0  35684-4 0  9992
2 41771  97.2125 186.9054 0002326 104.8454 255.3048 15.37637896200420
SKYSAT-C5               
1 41772U 16058C   20115.84247806  .00000680  00000-0  31166-4 0  9994
2 41772  97.3611 186.5452 0002105  82.0859  25.1331 15.23783827200374
SKYSAT-C2               
1 41773U 16058D   20115.77581650  .00001240  00000-0  35565-4 0  9995
2 41773  97.2129 187.1892 0002286  83.6103 276.5402 15.37765994200441
SKYSAT-C3               
1 41774U 16058E   20115.78728185  .00001252  00000-0  35946-4 0  9999
2 41774  97.2124 187.1805 0003598 106.0392 254.1249 15.37706344200432
FLOCK 3P-20             
1 41950U 17008C   20115.77305891  .00001563  00000-0  63424-4 0  9992
2 41950  97.3671 183.9788 0010437 120.2939 239.9334 15.26056453177396
FLOCK 3P-8              
1 41951U 17008D   20115.76323139  .00001279  00000-0  52155-4 0  9990
2 41951  97.3672 184.0303 0009671 119.7197 240.5005 15.26211479177394
FLOCK 3P-51             
1 41952U 17008E   20115.66919898  .00001129  00000-0  46434-4 0  9990
2 41952  97.3675 184.0977 0009229 134.3962 225.8034 15.26189229177381
FLOCK 3P-37             
1 41953U 17008F   20115.77298240  .00002570  00000-0  95635-4 0  9992
2 41953  97.3696 186.1355 0008212 133.2075 226.9852 15.28384783177522
FLOCK 3P-19             
1 41955U 17008H   20115.73012854  .00002619  00000-0  10207-3 0  9990
2 41955  97.3658 183.9817 0010052 120.4458 239.7775 15.26806025177317
FLOCK 3P-24             
1 41956U 17008J   20115.74287815  .00001111  00000-0  43018-4 0  9996
2 41956  97.3667 185.5456 0009582 110.5612 249.6656 15.28236050177509
FLOCK 3P-18             
1 41957U 17008K   20115.71840055  .00002602  00000-0  96951-4 0  9995
2 41957  97.3639 185.0355 0009710 113.9378 246.2880 15.28313389177313
FLOCK 3P-22             
1 41958U 17008L   20115.72832136  .00002614  00000-0  98220-4 0  9992
2 41958  97.3683 184.8560 0009646 115.9856 244.2378 15.28036185177270
FLOCK 3P-21             
1 41959U 17008M   20115.73633890  .00002206  00000-0  84950-4 0  9992
2 41959  97.3682 184.6075 0009683 119.0531 241.1679 15.27387228177260
FLOCK 3P-28             
1 41960U 17008N   20115.77370696  .00002381  00000-0  92448-4 0  9995
2 41960  97.3670 184.3274 0009633 117.2138 243.0084 15.27031199177337
FLOCK 3P-26             
1 41961U 17008P   20115.81258208  .00002677  00000-0  10155-3 0  9997
2 41961  97.3663 184.8393 0009548 116.3405 243.8816 15.27689004177299
FLOCK 3P-17             
1 41962U 17008Q   20115.73298969  .00002681  00000-0  10097-3 0  9997
2 41962  97.3671 185.0918 0009141 117.1285 243.0887 15.27933621177252
FLOCK 3P-27             
1 41963U 17008R   20115.72893298  .00002202  00000-0  84494-4 0  9995
2 41963  97.3676 184.6806 0009756 116.4768 243.7473 15.27504876177275
FLOCK 3P-25             
1 41964U 17008S   20115.77440878  .00002745  00000-0  10389-3 0  9996
2 41964  97.3643 184.6455 0009625 116.2363 243.9867 15.27747563177264
FLOCK 3P-4              
1 41965U 17008T   20115.76905811  .00001317  00000-0  53634-4 0  9994
2 41965  97.3671 184.0199 0009780 118.9501 241.2720 15.26213304177315
FLOCK 3P-2              
1 41966U 17008U   20115.64081825  .00001164  00000-0  47742-4 0  9995
2 41966  97.3685 183.9535 0009574 117.5274 242.6938 15.26205781177211
FLOCK 3P-1              
1 41967U 17008V   20115.78665376  .00002868  00000-0  10727-3 0  9994
2 41967  97.3669 184.9189 0009395 116.8393 243.3809 15.28107672177290
FLOCK 3P-3              
1 41968U 17008W   20115.73024168  .00002134  00000-0  84026-4 0  9998
2 41968  97.3678 184.0718 0009681 118.0797 242.1422 15.26671566177227
FLOCK 3P-6              
1 41969U 17008X   20115.76430071  .00002777  00000-0  10951-3 0  9994
2 41969  97.3671 184.0710 0009593 119.3883 240.8315 15.26360443177220
FLOCK 3P-7              
1 41970U 17008Y   20115.76840361  .00002914  00000-0  10786-3 0  9992
2 41970  97.3671 185.3944 0009264 116.9504 243.2683 15.28440693177316
FLOCK 3P-5              
1 41971U 17008Z   20115.74185739  .00002285  00000-0  87565-4 0  9993
2 41971  97.3677 184.7310 0009400 119.1610 241.0571 15.27511485177205
FLOCK 3P-12             
1 41972U 17008AA  20115.82424048  .00001280  00000-0  52214-4 0  9999
2 41972  97.3688 184.1751 0009357 120.6247 239.5916 15.26217321177324
FLOCK 3P-9              
1 41973U 17008AB  20115.79474857  .00001759  00000-0  69811-4 0  9991
2 41973  97.3681 184.2332 0009451 118.7037 241.5152 15.26642007177322
FLOCK 3P-10             
1 41974U 17008AC  20115.77567413  .00002477  00000-0  95392-4 0  9992
2 41974  97.3687 184.7513 0008920 117.8952 242.3191 15.27273055177248
